[{"OBJECT_NAME":"STARLINK-37045","OBJECT_ID":"2026-042F","EPOCH":"2026-03-18T14:00:01.000224","MEAN_MOTION":15.80854648,"ECCENTRICITY":0.00012213,"INCLINATION":53.1595,"RA_OF_ASC_NODE":150.1652,"ARG_OF_PERICENTER":73.8146,"MEAN_ANOMALY":154.8841,"EPHEMERIS_TYPE":0,"CLASSIFICATION_TYPE":"U","NORAD_CAT_ID":68074,"ELEMENT_SET_NO":999,"REV_AT_EPOCH":348,"BSTAR":0.00024011629,"MEAN_MOTION_DOT":0.0004691,"MEAN_MOTION_DDOT":0},{"OBJECT_NAME":"STARLINK-37026","OBJECT_ID":"2026-042G","EPOCH":"2026-03-18T14:00:01.000224","MEAN_MOTION":15.75667114,"ECCENTRICITY":0.00012452,"INCLINATION":53.1594,"RA_OF_ASC_NODE":150.1759,"ARG_OF_PERICENTER":59.1428,"MEAN_ANOMALY":163.9557,"EPHEMERIS_TYPE":0,"CLASSIFICATION_TYPE":"U","NORAD_CAT_ID":68075,"ELEMENT_SET_NO":999,"REV_AT_EPOCH":348,"BSTAR":-0.0044471004,"MEAN_MOTION_DOT":-0.0064482,"MEAN_MOTION_DDOT":0},{"OBJECT_NAME":"STARLINK-37023","OBJECT_ID":"2026-042H","EPOCH":"2026-03-18T14:00:01.000224","MEAN_MOTION":15.81190271,"ECCENTRICITY":0.00011784,"INCLINATION":53.1593,"RA_OF_ASC_NODE":150.1475,"ARG_OF_PERICENTER":85.139,"MEAN_ANOMALY":152.0701,"EPHEMERIS_TYPE":0,"CLASSIFICATION_TYPE":"U","NORAD_CAT_ID":68076,"ELEMENT_SET_NO":999,"REV_AT_EPOCH":348,"BSTAR":-0.010204861,"MEAN_MOTION_DOT":-0.01798952,"MEAN_MOTION_DDOT":0},{"OBJECT_NAME":"STARLINK-37036","OBJECT_ID":"2026-042J","EPOCH":"2026-03-18T14:00:01.000224","MEAN_MOTION":15.80008079,"ECCENTRICITY":0.00011021,"INCLINATION":53.1594,"RA_OF_ASC_NODE":150.139,"ARG_OF_PERICENTER":68.4472,"MEAN_ANOMALY":172.7261,"EPHEMERIS_TYPE":0,"CLASSIFICATION_TYPE":"U","NORAD_CAT_ID":68077,"ELEMENT_SET_NO":999,"REV_AT_EPOCH":348,"BSTAR":-0.011575943,"MEAN_MOTION_DOT":-0.01913913,"MEAN_MOTION_DDOT":0},{"OBJECT_NAME":"STARLINK-36973","OBJECT_ID":"2026-042K","EPOCH":"2026-03-18T14:00:01.000224","MEAN_MOTION":15.80833409,"ECCENTRICITY":0.0001193,"INCLINATION":53.1595,"RA_OF_ASC_NODE":150.1208,"ARG_OF_PERICENTER":79.6262,"MEAN_ANOMALY":170.4364,"EPHEMERIS_TYPE":0,"CLASSIFICATION_TYPE":"U","NORAD_CAT_ID":68078,"ELEMENT_SET_NO":999,"REV_AT_EPOCH":348,"BSTAR":0.00049825627,"MEAN_MOTION_DOT":0.00098589,"MEAN_MOTION_DDOT":0},{"OBJECT_NAME":"STARLINK-37063","OBJECT_ID":"2026-042L","EPOCH":"2026-03-18T14:00:01.000224","MEAN_MOTION":15.80845803,"ECCENTRICITY":0.00011346,"INCLINATION":53.1626,"RA_OF_ASC_NODE":150.1297,"ARG_OF_PERICENTER":80.9573,"MEAN_ANOMALY":164.8308,"EPHEMERIS_TYPE":0,"CLASSIFICATION_TYPE":"U","NORAD_CAT_ID":68079,"ELEMENT_SET_NO":999,"REV_AT_EPOCH":348,"BSTAR":0.0002578625,"MEAN_MOTION_DOT":0.00050428,"MEAN_MOTION_DDOT":0},{"OBJECT_NAME":"STARLINK-37051","OBJECT_ID":"2026-042M","EPOCH":"2026-03-18T14:00:01.000224","MEAN_MOTION":15.80859467,"ECCENTRICITY":0.00013324,"INCLINATION":53.1593,"RA_OF_ASC_NODE":150.1027,"ARG_OF_PERICENTER":106.011,"MEAN_ANOMALY":152.5901,"EPHEMERIS_TYPE":0,"CLASSIFICATION_TYPE":"U","NORAD_CAT_ID":68080,"ELEMENT_SET_NO":999,"REV_AT_EPOCH":348,"BSTAR":0.00023498468,"MEAN_MOTION_DOT":0.00045897,"MEAN_MOTION_DDOT":0},{"OBJECT_NAME":"STARLINK-37066","OBJECT_ID":"2026-042N","EPOCH":"2026-03-18T14:00:01.000224","MEAN_MOTION":15.80842001,"ECCENTRICITY":0.00016426,"INCLINATION":53.1596,"RA_OF_ASC_NODE":150.1121,"ARG_OF_PERICENTER":57.796,"MEAN_ANOMALY":196.5401,"EPHEMERIS_TYPE":0,"CLASSIFICATION_TYPE":"U","NORAD_CAT_ID":68081,"ELEMENT_SET_NO":999,"REV_AT_EPOCH":348,"BSTAR":0.00038674992,"MEAN_MOTION_DOT":0.00076201,"MEAN_MOTION_DDOT":0},{"OBJECT_NAME":"STARLINK-37054","OBJECT_ID":"2026-042P","EPOCH":"2026-03-18T14:00:01.000224","MEAN_MOTION":15.80871981,"ECCENTRICITY":0.0001401,"INCLINATION":53.1593,"RA_OF_ASC_NODE":150.0943,"ARG_OF_PERICENTER":73.0088,"MEAN_ANOMALY":189.8611,"EPHEMERIS_TYPE":0,"CLASSIFICATION_TYPE":"U","NORAD_CAT_ID":68082,"ELEMENT_SET_NO":999,"REV_AT_EPOCH":348,"BSTAR":2.1785946e-5,"MEAN_MOTION_DOT":3.602e-5,"MEAN_MOTION_DDOT":0},{"OBJECT_NAME":"STARLINK-37065","OBJECT_ID":"2026-042Q","EPOCH":"2026-03-18T14:00:01.000224","MEAN_MOTION":15.80413211,"ECCENTRICITY":0.00011702,"INCLINATION":53.1596,"RA_OF_ASC_NODE":150.0851,"ARG_OF_PERICENTER":86.3176,"MEAN_ANOMALY":180.7348,"EPHEMERIS_TYPE":0,"CLASSIFICATION_TYPE":"U","NORAD_CAT_ID":68083,"ELEMENT_SET_NO":999,"REV_AT_EPOCH":348,"BSTAR":-0.01135936,"MEAN_MOTION_DOT":-0.01913839,"MEAN_MOTION_DDOT":0},{"OBJECT_NAME":"STARLINK-37037","OBJECT_ID":"2026-042R","EPOCH":"2026-03-18T14:00:01.000224","MEAN_MOTION":15.80870402,"ECCENTRICITY":0.00011177,"INCLINATION":53.162,"RA_OF_ASC_NODE":150.0765,"ARG_OF_PERICENTER":81.108,"MEAN_ANOMALY":190.3055,"EPHEMERIS_TYPE":0,"CLASSIFICATION_TYPE":"U","NORAD_CAT_ID":68084,"ELEMENT_SET_NO":999,"REV_AT_EPOCH":348,"BSTAR":-1.572351e-5,"MEAN_MOTION_DOT":-3.8e-5,"MEAN_MOTION_DDOT":0},{"OBJECT_NAME":"STARLINK-37068","OBJECT_ID":"2026-042S","EPOCH":"2026-03-18T14:00:01.000224","MEAN_MOTION":15.80852746,"ECCENTRICITY":0.00011518,"INCLINATION":53.1591,"RA_OF_ASC_NODE":150.0673,"ARG_OF_PERICENTER":101.1298,"MEAN_ANOMALY":174.5564,"EPHEMERIS_TYPE":0,"CLASSIFICATION_TYPE":"U","NORAD_CAT_ID":68085,"ELEMENT_SET_NO":999,"REV_AT_EPOCH":348,"BSTAR":0.00026306455,"MEAN_MOTION_DOT":0.00051483,"MEAN_MOTION_DDOT":0},{"OBJECT_NAME":"STARLINK-37067","OBJECT_ID":"2026-042T","EPOCH":"2026-03-18T14:00:01.000224","MEAN_MOTION":15.80863643,"ECCENTRICITY":0.00010167,"INCLINATION":53.159,"RA_OF_ASC_NODE":150.0587,"ARG_OF_PERICENTER":48.629,"MEAN_ANOMALY":231.3253,"EPHEMERIS_TYPE":0,"CLASSIFICATION_TYPE":"U","NORAD_CAT_ID":68086,"ELEMENT_SET_NO":999,"REV_AT_EPOCH":348,"BSTAR":0.00024369311,"MEAN_MOTION_DOT":0.00047643,"MEAN_MOTION_DDOT":0},{"OBJECT_NAME":"STARLINK-37062","OBJECT_ID":"2026-042U","EPOCH":"2026-03-18T14:00:01.000224","MEAN_MOTION":15.80895878,"ECCENTRICITY":0.00015128,"INCLINATION":53.1591,"RA_OF_ASC_NODE":150.0497,"ARG_OF_PERICENTER":79.1268,"MEAN_ANOMALY":205.1047,"EPHEMERIS_TYPE":0,"CLASSIFICATION_TYPE":"U","NORAD_CAT_ID":68087,"ELEMENT_SET_NO":999,"REV_AT_EPOCH":348,"BSTAR":-0.00025253051,"MEAN_MOTION_DOT":-0.00050306,"MEAN_MOTION_DDOT":0},{"OBJECT_NAME":"STARLINK-37059","OBJECT_ID":"2026-042V","EPOCH":"2026-03-18T14:00:01.000224","MEAN_MOTION":15.80886427,"ECCENTRICITY":0.00011709,"INCLINATION":53.1591,"RA_OF_ASC_NODE":150.0412,"ARG_OF_PERICENTER":71.7016,"MEAN_ANOMALY":216.7948,"EPHEMERIS_TYPE":0,"CLASSIFICATION_TYPE":"U","NORAD_CAT_ID":68088,"ELEMENT_SET_NO":999,"REV_AT_EPOCH":348,"BSTAR":-9.6613284e-5,"MEAN_MOTION_DOT":-0.00019736,"MEAN_MOTION_DDOT":0},{"OBJECT_NAME":"STARLINK-37004","OBJECT_ID":"2026-042W","EPOCH":"2026-03-18T14:00:01.000224","MEAN_MOTION":15.80853441,"ECCENTRICITY":0.00011817,"INCLINATION":53.1592,"RA_OF_ASC_NODE":150.0322,"ARG_OF_PERICENTER":95.9966,"MEAN_ANOMALY":196.7807,"EPHEMERIS_TYPE":0,"CLASSIFICATION_TYPE":"U","NORAD_CAT_ID":68089,"ELEMENT_SET_NO":999,"REV_AT_EPOCH":348,"BSTAR":0.00024604482,"MEAN_MOTION_DOT":0.00048089,"MEAN_MOTION_DDOT":0}]
