STARLINK-37045          
1 68074U 26042F   26077.58334491  .00046910  00000+0  24012-3 0  9999
2 68074  53.1595 150.1652 0001221  73.8146 154.8841 15.80854648  3485
STARLINK-37026          
1 68075U 26042G   26077.58334491 -.00644820  00000+0 -44471-2 0  9996
2 68075  53.1594 150.1759 0001245  59.1428 163.9557 15.75667114  3488
STARLINK-37023          
1 68076U 26042H   26077.58334491 -.01798952  00000+0 -10205-1 0  9991
2 68076  53.1593 150.1475 0001178  85.1390 152.0701 15.81190271  3487
STARLINK-37036          
1 68077U 26042J   26077.58334491 -.01913913  00000+0 -11576-1 0  9990
2 68077  53.1594 150.1390 0001102  68.4472 172.7261 15.80008079  3480
STARLINK-36973          
1 68078U 26042K   26077.58334491  .00098589  00000+0  49826-3 0  9992
2 68078  53.1595 150.1208 0001193  79.6262 170.4364 15.80833409  3483
STARLINK-37063          
1 68079U 26042L   26077.58334491  .00050428  00000+0  25786-3 0  9992
2 68079  53.1626 150.1297 0001134  80.9573 164.8308 15.80845803  3488
STARLINK-37051          
1 68080U 26042M   26077.58334491  .00045897  00000+0  23498-3 0  9996
2 68080  53.1593 150.1027 0001332 106.0110 152.5901 15.80859467  3485
STARLINK-37066          
1 68081U 26042N   26077.58334491  .00076201  00000+0  38675-3 0  9993
2 68081  53.1596 150.1121 0001642  57.7960 196.5401 15.80842001  3482
STARLINK-37054          
1 68082U 26042P   26077.58334491  .00003602  00000+0  21786-4 0  9995
2 68082  53.1593 150.0943 0001401  73.0088 189.8611 15.80871981  3483
STARLINK-37065          
1 68083U 26042Q   26077.58334491 -.01913839  00000+0 -11359-1 0  9993
2 68083  53.1596 150.0851 0001170  86.3176 180.7348 15.80413211  3488
STARLINK-37037          
1 68084U 26042R   26077.58334491 -.00003800  00000+0 -15724-4 0  9994
2 68084  53.1620 150.0765 0001117  81.1080 190.3055 15.80870402  3480
STARLINK-37068          
1 68085U 26042S   26077.58334491  .00051483  00000+0  26306-3 0  9990
2 68085  53.1591 150.0673 0001151 101.1298 174.5564 15.80852746  3488
STARLINK-37067          
1 68086U 26042T   26077.58334491  .00047643  00000+0  24369-3 0  9991
2 68086  53.1590 150.0587 0001016  48.6290 231.3253 15.80863643  3484
STARLINK-37062          
1 68087U 26042U   26077.58334491 -.00050306  00000+0 -25253-3 0  9997
2 68087  53.1591 150.0497 0001512  79.1268 205.1047 15.80895878  3486
STARLINK-37059          
1 68088U 26042V   26077.58334491 -.00019736  00000+0 -96613-4 0  9999
2 68088  53.1591 150.0412 0001170  71.7016 216.7948 15.80886427  3481
STARLINK-37004          
1 68089U 26042W   26077.58334491  .00048089  00000+0  24604-3 0  9991
2 68089  53.1592 150.0322 0001181  95.9966 196.7807 15.80853441  3488
